{
  "norad_id": 62487,
  "name": "STARLINK-32713",
  "history": [
    {
      "epoch": "2026-03-28T12:56:54.222144Z",
      "apogee_km": 484.0953953434855,
      "perigee_km": 481.86429736738864,
      "latitude_deg": 1.6389578713809497e-05,
      "longitude_deg": 162.39998440453425,
      "height_km": 482.67539685351727,
      "semi_major_axis_km": 6861.116846355437,
      "eccentricity": 0.00016259,
      "inclination_deg": 42.9995,
      "raan_deg": 182.5844,
      "arg_perigee_deg": 274.1785,
      "mean_anomaly_deg": 85.8881,
      "mean_motion_rev_day": 15.27603127
    }
  ]
}