{"fetched_at":"2026-03-29T02:12:04Z","count":15717,"tles":[{"name":"STARLINK-32713","line1":"1 62487U 25003A   26087.53951646  .00034295  00000+0  12491-2 0  9990","line2":"2 62487  42.9995 182.5844 0001625 274.1785  85.8881 15.27603127 69532","category":"Starlink"}]}